STARLINK-2557_new
1 18299C 21036Z   21326.17915198  .00007289  00000-0  48824-3 0  3268
2 18299  53.0574 282.9355 0001835  66.1117  10.7513 15.06398842    15
STARLINK-2557_old
1 28299C 21036Z   21325.14446159  .00004910  00000-0  32904-3 0  3259
2 28299  53.0570 287.5799 0001771  65.9233 156.6894 15.06385500    18
